{"type": "FeatureCollection", "features": [{"type": "Feature", "properties": {"norad_id": 36828, "name": "BEIDOU-2 IGSO-1 (C06)", "group": "beidou", "lat": 5.091324164256774, "lon": 168.3086151133178, "alt_km": 35972.438025882664, "timestamp": "2025-12-13T22:39:29.974796+00:00", "meta": {"OBJECT_NAME": "BEIDOU-2 IGSO-1 (C06)", "OBJECT_ID": "2010-036A", "EPOCH": "2025-12-12T21:56:21.549120", "MEAN_MOTION": 1.00276081, "ECCENTRICITY": 0.00512083, "INCLINATION": 54.2861, "RA_OF_ASC_NODE": 164.6456, "ARG_OF_PERICENTER": 215.8019, "MEAN_ANOMALY": 138.385, "EPHEMERIS_TYPE": 0, "CLASSIFICATION_TYPE": "U", "NORAD_CAT_ID": 36828, "ELEMENT_SET_NO": 999, "REV_AT_EPOCH": 5622, "BSTAR": 0, "MEAN_MOTION_DOT": -3.7e-07, "MEAN_MOTION_DDOT": 0}, "tle": {"line1": "1 36828U 10036A   25346.91413830 -.00000037  00000+0  00000+0 0  9995", "line2": "2 36828  54.2861 164.6456 0051208 215.8019 138.3850  1.00276081 56227"}}, "geometry": {"type": "Point", "coordinates": [168.3086151133178, 5.091324164256774]}}, {"type": "Feature", "properties": {"norad_id": 37210, "name": "BEIDOU-2 G4 (C04)", "group": "beidou", "lat": 1.4387815593576576, "lon": -137.22774258600194, "alt_km": 35750.0471049424, "timestamp": "2025-12-13T22:39:29.974820+00:00", "meta": {"OBJECT_NAME": "BEIDOU-2 G4 (C04)", "OBJECT_ID": "2010-057A", "EPOCH": "2025-12-13T07:47:51.710784", "MEAN_MOTION": 1.00271593, "ECCENTRICITY": 0.00108145, "INCLINATION": 3.1864, "RA_OF_ASC_NODE": 69.9376, "ARG_OF_PERICENTER": 191.2025, "MEAN_ANOMALY": 98.158, "EPHEMERIS_TYPE": 0, "CLASSIFICATION_TYPE": "U", "NORAD_CAT_ID": 37210, "ELEMENT_SET_NO": 999, "REV_AT_EPOCH": 5542, "BSTAR": 0, "MEAN_MOTION_DOT": -9.8e-07, "MEAN_MOTION_DDOT": 0}, "tle": {"line1": "1 37210U 10057A   25347.32490406 -.00000098  00000+0  00000+0 0  9991", "line2": "2 37210   3.1864  69.9376 0010814 191.2025  98.1580  1.00271593 55426"}}, "geometry": {"type": "Point", "coordinates": [-137.22774258600194, 1.4387815593576576]}}, {"type": "Feature", "properties": {"norad_id": 37256, "name": "BEIDOU-2 IGSO-2 (C07)", "group": "beidou", "lat": -46.23381782483051, "lon": 164.6073892459679, "alt_km": 35629.97285889977, "timestamp": "2025-12-13T22:39:29.974836+00:00", "meta": {"OBJECT_NAME": "BEIDOU-2 IGSO-2 (C07)", "OBJECT_ID": "2010-068A", "EPOCH": "2025-12-03T17:22:36.027840", "MEAN_MOTION": 1.0028872, "ECCENTRICITY": 0.00492449, "INCLINATION": 47.9042, "RA_OF_ASC_NODE": 274.2614, "ARG_OF_PERICENTER": 216.1411, "MEAN_ANOMALY": 310.24, "EPHEMERIS_TYPE": 0, "CLASSIFICATION_TYPE": "U", "NORAD_CAT_ID": 37256, "ELEMENT_SET_NO": 999, "REV_AT_EPOCH": 5483, "BSTAR": 0, "MEAN_MOTION_DOT": -2.25e-06, "MEAN_MOTION_DDOT": 0}, "tle": {"line1": "1 37256U 10068A   25337.72402810 -.00000225  00000+0  00000+0 0  9990", "line2": "2 37256  47.9042 274.2614 0049244 216.1411 310.2400  1.00288720 54834"}}, "geometry": {"type": "Point", "coordinates": [164.6073892459679, -46.23381782483051]}}, {"type": "Feature", "properties": {"norad_id": 37384, "name": "BEIDOU-2 IGSO-3 (C08)", "group": "beidou", "lat": 44.19029934435514, "lon": -168.95174352157915, "alt_km": 35706.000303846, "timestamp": "2025-12-13T22:39:29.974852+00:00", "meta": {"OBJECT_NAME": "BEIDOU-2 IGSO-3 (C08)", "OBJECT_ID": "2011-013A", "EPOCH": "2025-12-12T16:08:36.948768", "MEAN_MOTION": 1.0027095, "ECCENTRICITY": 0.00354506, "INCLINATION": 62.1436, "RA_OF_ASC_NODE": 41.9157, "ARG_OF_PERICENTER": 187.5119, "MEAN_ANOMALY": 201.8968, "EPHEMERIS_TYPE": 0, "CLASSIFICATION_TYPE": "U", "NORAD_CAT_ID": 37384, "ELEMENT_SET_NO": 999, "REV_AT_EPOCH": 5379, "BSTAR": 0, "MEAN_MOTION_DOT": -1.97e-06, "MEAN_MOTION_DDOT": 0}, "tle": {"line1": "1 37384U 11013A   25346.67264987 -.00000197  00000+0  00000+0 0  9996", "line2": "2 37384  62.1436  41.9157 0035450 187.5119 201.8968  1.00270950 53797"}}, "geometry": {"type": "Point", "coordinates": [-168.95174352157915, 44.19029934435514]}}, {"type": "Feature", "properties": {"norad_id": 37763, "name": "BEIDOU-2 IGSO-4 (C09)", "group": "beidou", "lat": -7.060603574875541, "lon": 162.26743600032776, "alt_km": 36101.53310234744, "timestamp": "2025-12-13T22:39:29.974866+00:00", "meta": {"OBJECT_NAME": "BEIDOU-2 IGSO-4 (C09)", "OBJECT_ID": "2011-038A", "EPOCH": "2025-12-10T12:04:03.489024", "MEAN_MOTION": 1.00284678, "ECCENTRICITY": 0.01490344, "INCLINATION": 54.5829, "RA_OF_ASC_NODE": 167.3658, "ARG_OF_PERICENTER": 230.2355, "MEAN_ANOMALY": 317.2212, "EPHEMERIS_TYPE": 0, "CLASSIFICATION_TYPE": "U", "NORAD_CAT_ID": 37763, "ELEMENT_SET_NO": 999, "REV_AT_EPOCH": 5275, "BSTAR": 0, "MEAN_MOTION_DOT": 3.6e-07, "MEAN_MOTION_DDOT": 0}, "tle": {"line1": "1 37763U 11038A   25344.50281816  .00000036  00000+0  00000+0 0  9995", "line2": "2 37763  54.5829 167.3658 0149034 230.2355 317.2212  1.00284678 52751"}}, "geometry": {"type": "Point", "coordinates": [162.26743600032776, -7.060603574875541]}}, {"type": "Feature", "properties": {"norad_id": 37948, "name": "BEIDOU-2 IGSO-5 (C10)", "group": "beidou", "lat": -41.23611302359512, "lon": 145.79282172633285, "alt_km": 35350.33411060203, "timestamp": "2025-12-13T22:39:29.974879+00:00", "meta": {"OBJECT_NAME": "BEIDOU-2 IGSO-5 (C10)", "OBJECT_ID": "2011-073A", "EPOCH": "2025-12-12T18:24:47.608416", "MEAN_MOTION": 1.00291151, "ECCENTRICITY": 0.01101752, "INCLINATION": 48.0199, "RA_OF_ASC_NODE": 273.857, "ARG_OF_PERICENTER": 222.308, "MEAN_ANOMALY": 314.7254, "EPHEMERIS_TYPE": 0, "CLASSIFICATION_TYPE": "U", "NORAD_CAT_ID": 37948, "ELEMENT_SET_NO": 999, "REV_AT_EPOCH": 5126, "BSTAR": 0, "MEAN_MOTION_DOT": -2.21e-06, "MEAN_MOTION_DDOT": 0}, "tle": {"line1": "1 37948U 11073A   25346.76721769 -.00000221  00000+0  00000+0 0  9992", "line2": "2 37948  48.0199 273.8570 0110175 222.3080 314.7254  1.00291151 51268"}}, "geometry": {"type": "Point", "coordinates": [145.79282172633285, -41.23611302359512]}}, {"type": "Feature", "properties": {"norad_id": 38091, "name": "BEIDOU-2 G5 (C05)", "group": "beidou", "lat": 2.425012100116395, "lon": 121.49703038635596, "alt_km": 35837.526849912116, "timestamp": "2025-12-13T22:39:29.974893+00:00", "meta": {"OBJECT_NAME": "BEIDOU-2 G5 (C05)", "OBJECT_ID": "2012-008A", "EPOCH": "2025-12-13T03:27:21.712320", "MEAN_MOTION": 1.00275839, "ECCENTRICITY": 0.00125761, "INCLINATION": 3.1106, "RA_OF_ASC_NODE": 70.7104, "ARG_OF_PERICENTER": 227.6994, "MEAN_ANOMALY": 254.3073, "EPHEMERIS_TYPE": 0, "CLASSIFICATION_TYPE": "U", "NORAD_CAT_ID": 38091, "ELEMENT_SET_NO": 999, "REV_AT_EPOCH": 5050, "BSTAR": 0, "MEAN_MOTION_DOT": 6.8e-07, "MEAN_MOTION_DDOT": 0}, "tle": {"line1": "1 38091U 12008A   25347.14400130  .00000068  00000+0  00000+0 0  9998", "line2": "2 38091   3.1106  70.7104 0012576 227.6994 254.3073  1.00275839 50502"}}, "geometry": {"type": "Point", "coordinates": [121.49703038635596, 2.425012100116395]}}, {"type": "Feature", "properties": {"norad_id": 38250, "name": "BEIDOU-2 M3 (C11)", "group": "beidou", "lat": 3.327941044008364, "lon": -46.64644072364426, "alt_km": 21527.541287677006, "timestamp": "2025-12-13T22:39:29.974905+00:00", "meta": {"OBJECT_NAME": "BEIDOU-2 M3 (C11)", "OBJECT_ID": "2012-018A", "EPOCH": "2025-12-12T20:44:25.859616", "MEAN_MOTION": 1.86229754, "ECCENTRICITY": 0.00243187, "INCLINATION": 55.9198, "RA_OF_ASC_NODE": 311.1526, "ARG_OF_PERICENTER": 274.2431, "MEAN_ANOMALY": 85.469, "EPHEMERIS_TYPE": 0, "CLASSIFICATION_TYPE": "U", "NORAD_CAT_ID": 38250, "ELEMENT_SET_NO": 999, "REV_AT_EPOCH": 9247, "BSTAR": 0, "MEAN_MOTION_DOT": -9.2e-07, "MEAN_MOTION_DDOT": 0}, "tle": {"line1": "1 38250U 12018A   25346.86418819 -.00000092  00000+0  00000+0 0  9995", "line2": "2 38250  55.9198 311.1526 0024318 274.2431  85.4690  1.86229754 92475"}}, "geometry": {"type": "Point", "coordinates": [-46.64644072364426, 3.327941044008364]}}, {"type": "Feature", "properties": {"norad_id": 38251, "name": "BEIDOU-2 M4 (C12)", "group": "beidou", "lat": 39.003876560850706, "lon": -16.303380085619356, "alt_km": 21552.725804074547, "timestamp": "2025-12-13T22:39:29.974917+00:00", "meta": {"OBJECT_NAME": "BEIDOU-2 M4 (C12)", "OBJECT_ID": "2012-018B", "EPOCH": "2025-12-12T06:13:22.160064", "MEAN_MOTION": 1.86229301, "ECCENTRICITY": 0.0015548, "INCLINATION": 55.8219, "RA_OF_ASC_NODE": 310.4024, "ARG_OF_PERICENTER": 277.1255, "MEAN_ANOMALY": 82.6882, "EPHEMERIS_TYPE": 0, "CLASSIFICATION_TYPE": "U", "NORAD_CAT_ID": 38251, "ELEMENT_SET_NO": 999, "REV_AT_EPOCH": 9246, "BSTAR": 0, "MEAN_MOTION_DOT": -9e-07, "MEAN_MOTION_DDOT": 0}, "tle": {"line1": "1 38251U 12018B   25346.25928426 -.00000090  00000+0  00000+0 0  9997", "line2": "2 38251  55.8219 310.4024 0015548 277.1255  82.6882  1.86229301 92464"}}, "geometry": {"type": "Point", "coordinates": [-16.303380085619356, 39.003876560850706]}}, {"type": "Feature", "properties": {"norad_id": 38775, "name": "BEIDOU-2 M6 (C14)", "group": "beidou", "lat": -48.072685003138886, "lon": -63.2510090326679, "alt_km": 21539.663791760177, "timestamp": "2025-12-13T22:39:29.974938+00:00", "meta": {"OBJECT_NAME": "BEIDOU-2 M6 (C14)", "OBJECT_ID": "2012-050B", "EPOCH": "2025-12-11T10:23:51.015840", "MEAN_MOTION": 1.86230797, "ECCENTRICITY": 0.00111593, "INCLINATION": 56.3773, "RA_OF_ASC_NODE": 69.1107, "ARG_OF_PERICENTER": 344.6089, "MEAN_ANOMALY": 15.3783, "EPHEMERIS_TYPE": 0, "CLASSIFICATION_TYPE": "U", "NORAD_CAT_ID": 38775, "ELEMENT_SET_NO": 999, "REV_AT_EPOCH": 8981, "BSTAR": 0, "MEAN_MOTION_DOT": -6.3e-07, "MEAN_MOTION_DDOT": 0}, "tle": {"line1": "1 38775U 12050B   25345.43322935 -.00000063  00000+0  00000+0 0  9996", "line2": "2 38775  56.3773  69.1107 0011159 344.6089  15.3783  1.86230797 89814"}}, "geometry": {"type": "Point", "coordinates": [-63.2510090326679, -48.072685003138886]}}]}